GLOBALSTAR M001         
1 25162U 98008A   24332.88147560  .00000008  00000+0  80200-3 0  9994
2 25162  52.0012 199.1379 0001549 140.8806 331.2171 12.38202380218775
GLOBALSTAR M004         
1 25163U 98008B   24332.67491628 -.00000031  00000+0  40112-3 0  9994
2 25163  52.0012 308.9109 0002672 199.0849 331.4396 12.63380100236213
GLOBALSTAR M002         
1 25164U 98008C   24332.44651456 -.00000069  00000+0  14749-3 0  9995
2 25164  52.0045  26.0332 0001767 138.8492 221.2462 11.61506067160625
GLOBALSTAR M003         
1 25165U 98008D   24332.39813465  .00000029  00000+0  12669-2 0  9993
2 25165  51.9993   7.3826 0007941 245.4538 127.9365 12.12055905208750
GLOBALSTAR M014         
1 25306U 98023A   24332.91539943 -.00000056  00000+0  40900-3 0  9992
2 25306  51.9855 312.3157 0001204 359.0095  38.1519 11.65475318167700
GLOBALSTAR M006         
1 25307U 98023B   24332.54547189 -.00000078  00000+0 -43711-4 0  9992
2 25307  51.9968 358.1871 0003719 102.2978  67.0930 11.58169830193469
GLOBALSTAR M015         
1 25308U 98023C   24332.83343049 -.00000061  00000+0  28508-3 0  9991
2 25308  51.9816  86.7098 0013331  80.6885  94.9411 11.48855185170938
GLOBALSTAR M008         
1 25309U 98023D   24332.73851508 -.00000049  00000+0  36892-3 0  9996
2 25309  51.9985  62.0992 0003242 114.4291  22.3250 12.36056873212931
